STARLINK-4079           
1 52666U 22053L   25243.52329008  .00000899  00000+0  74581-4 0  9996
2 52666  53.2166 287.4303 0001362  83.7178 276.3969 15.08845749182344
STARLINK-4076           
1 52667U 22053M   25243.41662080  .00000448  00000+0  46212-4 0  9995
2 52667  53.2173 288.2925 0001187  86.7638 273.3490 15.08839120182321
STARLINK-4067           
1 52668U 22053N   25243.55645976  .00000597  00000+0  55586-4 0  9995
2 52668  53.2172 287.6639 0001419  86.7088 273.4066 15.08837674182347
STARLINK-3972           
1 52669U 22053P   25243.53806675 -.00000848  00000+0 -35199-4 0  9998
2 52669  53.2191 287.7470 0001491  96.4578 263.6584 15.08836335182333
STARLINK-4075           
1 52670U 22053Q   25243.49391000  .00000177  00000+0  29225-4 0  9992
2 52670  53.2167 288.0135 0001225  84.8730 275.2402 15.08836978182337
STARLINK-4071           
1 52671U 22053R   25243.53437192  .00000832  00000+0  70339-4 0  9991
2 52671  53.2165 287.7658 0001122  83.4433 276.6687 15.08846784182339
STARLINK-4073           
1 52672U 22053S   25243.54542278  .00000034  00000+0  20210-4 0  9992
2 52672  53.2173 287.7144 0001028  93.6344 266.4766 15.08835150182338
STARLINK-3976           
1 52673U 22053T   25243.39454563 -.00000873  00000+0 -36761-4 0  9996
2 52673  53.2168 288.3949 0001445  86.3552 273.7605 15.08847037182314
STARLINK-3936           
1 52674U 22053U   25243.40926705 -.00000463  00000+0 -10989-4 0  9990
2 52674  53.2173 288.3254 0001269  90.2218 269.8920 15.08832768182329
STARLINK-3934           
1 52675U 22053V   25243.39178127  .00000265  00000+0  34753-4 0  9999
2 52675  53.2166 278.4039 0001306  90.0879 270.0263 15.08838204182444
STARLINK-4006           
1 52676U 22053W   25243.39822071  .00001276  00000+0  98258-4 0  9997
2 52676  53.2174 288.3759 0001062  75.9509 284.1601 15.08837737182312
STARLINK-4074           
1 52678U 22053Y   25243.53531531  .00000540  00000+0  51982-4 0  9999
2 52678  53.2169 277.8660 0001202  84.8079 275.3050 15.08838663182464
STARLINK-4031           
1 52679U 22053Z   25243.50585780  .00000546  00000+0  52398-4 0  9990
2 52679  53.2160 277.8933 0001370  92.1771 267.9378 15.08841755182428
STARLINK-3774           
1 52680U 22053AA  25243.36599334  .00000094  00000+0  23983-4 0  9992
2 52680  53.2166 278.2903 0001350  83.5802 276.5344 15.08839850182427
STARLINK-4068           
1 52681U 22053AB  25243.36969844  .00000712  00000+0  62808-4 0  9996
2 52681  53.2167 278.5044 0001253  91.9458 268.1678 15.08842576182404
STARLINK-4017           
1 52682U 22053AC  25243.38073466  .00001049  00000+0  83961-4 0  9992
2 52682  53.2164 278.4543 0001254  89.0685 271.0451 15.08844444182426
