[{"OBJECT_NAME":"STARLINK-4079","OBJECT_ID":"2022-053L","EPOCH":"2025-08-31T12:33:32.262912","MEAN_MOTION":15.08845749,"ECCENTRICITY":0.00013623,"INCLINATION":53.2166,"RA_OF_ASC_NODE":287.4303,"ARG_OF_PERICENTER":83.7178,"MEAN_ANOMALY":276.3969,"EPHEMERIS_TYPE":0,"CLASSIFICATION_TYPE":"U","NORAD_CAT_ID":52666,"ELEMENT_SET_NO":999,"REV_AT_EPOCH":18234,"BSTAR":7.4581156e-5,"MEAN_MOTION_DOT":8.99e-6,"MEAN_MOTION_DDOT":0},{"OBJECT_NAME":"STARLINK-4076","OBJECT_ID":"2022-053M","EPOCH":"2025-08-31T09:59:56.037120","MEAN_MOTION":15.0883912,"ECCENTRICITY":0.00011877,"INCLINATION":53.2173,"RA_OF_ASC_NODE":288.2925,"ARG_OF_PERICENTER":86.7638,"MEAN_ANOMALY":273.349,"EPHEMERIS_TYPE":0,"CLASSIFICATION_TYPE":"U","NORAD_CAT_ID":52667,"ELEMENT_SET_NO":999,"REV_AT_EPOCH":18232,"BSTAR":4.621243e-5,"MEAN_MOTION_DOT":4.48e-6,"MEAN_MOTION_DDOT":0},{"OBJECT_NAME":"STARLINK-4067","OBJECT_ID":"2022-053N","EPOCH":"2025-08-31T13:21:18.123264","MEAN_MOTION":15.08837674,"ECCENTRICITY":0.00014191,"INCLINATION":53.2172,"RA_OF_ASC_NODE":287.6639,"ARG_OF_PERICENTER":86.7088,"MEAN_ANOMALY":273.4066,"EPHEMERIS_TYPE":0,"CLASSIFICATION_TYPE":"U","NORAD_CAT_ID":52668,"ELEMENT_SET_NO":999,"REV_AT_EPOCH":18234,"BSTAR":5.558618e-5,"MEAN_MOTION_DOT":5.97e-6,"MEAN_MOTION_DDOT":0},{"OBJECT_NAME":"STARLINK-3972","OBJECT_ID":"2022-053P","EPOCH":"2025-08-31T12:54:48.967200","MEAN_MOTION":15.08836335,"ECCENTRICITY":0.00014919,"INCLINATION":53.2191,"RA_OF_ASC_NODE":287.747,"ARG_OF_PERICENTER":96.4578,"MEAN_ANOMALY":263.6584,"EPHEMERIS_TYPE":0,"CLASSIFICATION_TYPE":"U","NORAD_CAT_ID":52669,"ELEMENT_SET_NO":999,"REV_AT_EPOCH":18233,"BSTAR":-3.5198642e-5,"MEAN_MOTION_DOT":-8.48e-6,"MEAN_MOTION_DDOT":0},{"OBJECT_NAME":"STARLINK-4075","OBJECT_ID":"2022-053Q","EPOCH":"2025-08-31T11:51:13.824000","MEAN_MOTION":15.08836978,"ECCENTRICITY":0.00012256,"INCLINATION":53.2167,"RA_OF_ASC_NODE":288.0135,"ARG_OF_PERICENTER":84.873,"MEAN_ANOMALY":275.2402,"EPHEMERIS_TYPE":0,"CLASSIFICATION_TYPE":"U","NORAD_CAT_ID":52670,"ELEMENT_SET_NO":999,"REV_AT_EPOCH":18233,"BSTAR":2.9224767e-5,"MEAN_MOTION_DOT":1.77e-6,"MEAN_MOTION_DDOT":0},{"OBJECT_NAME":"STARLINK-4071","OBJECT_ID":"2022-053R","EPOCH":"2025-08-31T12:49:29.733888","MEAN_MOTION":15.08846784,"ECCENTRICITY":0.00011223,"INCLINATION":53.2165,"RA_OF_ASC_NODE":287.7658,"ARG_OF_PERICENTER":83.4433,"MEAN_ANOMALY":276.6687,"EPHEMERIS_TYPE":0,"CLASSIFICATION_TYPE":"U","NORAD_CAT_ID":52671,"ELEMENT_SET_NO":999,"REV_AT_EPOCH":18233,"BSTAR":7.0339177e-5,"MEAN_MOTION_DOT":8.32e-6,"MEAN_MOTION_DDOT":0},{"OBJECT_NAME":"STARLINK-4073","OBJECT_ID":"2022-053S","EPOCH":"2025-08-31T13:05:24.528192","MEAN_MOTION":15.0883515,"ECCENTRICITY":0.00010285,"INCLINATION":53.2173,"RA_OF_ASC_NODE":287.7144,"ARG_OF_PERICENTER":93.6344,"MEAN_ANOMALY":266.4766,"EPHEMERIS_TYPE":0,"CLASSIFICATION_TYPE":"U","NORAD_CAT_ID":52672,"ELEMENT_SET_NO":999,"REV_AT_EPOCH":18233,"BSTAR":2.020987e-5,"MEAN_MOTION_DOT":3.4e-7,"MEAN_MOTION_DDOT":0},{"OBJECT_NAME":"STARLINK-3976","OBJECT_ID":"2022-053T","EPOCH":"2025-08-31T09:28:08.742432","MEAN_MOTION":15.08847037,"ECCENTRICITY":0.00014452,"INCLINATION":53.2168,"RA_OF_ASC_NODE":288.3949,"ARG_OF_PERICENTER":86.3552,"MEAN_ANOMALY":273.7605,"EPHEMERIS_TYPE":0,"CLASSIFICATION_TYPE":"U","NORAD_CAT_ID":52673,"ELEMENT_SET_NO":999,"REV_AT_EPOCH":18231,"BSTAR":-3.6760507e-5,"MEAN_MOTION_DOT":-8.73e-6,"MEAN_MOTION_DDOT":0},{"OBJECT_NAME":"STARLINK-3936","OBJECT_ID":"2022-053U","EPOCH":"2025-08-31T09:49:20.673120","MEAN_MOTION":15.08832768,"ECCENTRICITY":0.00012691,"INCLINATION":53.2173,"RA_OF_ASC_NODE":288.3254,"ARG_OF_PERICENTER":90.2218,"MEAN_ANOMALY":269.892,"EPHEMERIS_TYPE":0,"CLASSIFICATION_TYPE":"U","NORAD_CAT_ID":52674,"ELEMENT_SET_NO":999,"REV_AT_EPOCH":18232,"BSTAR":-1.0989322e-5,"MEAN_MOTION_DOT":-4.63e-6,"MEAN_MOTION_DDOT":0},{"OBJECT_NAME":"STARLINK-3934","OBJECT_ID":"2022-053V","EPOCH":"2025-08-31T09:24:09.901728","MEAN_MOTION":15.08838204,"ECCENTRICITY":0.00013064,"INCLINATION":53.2166,"RA_OF_ASC_NODE":278.4039,"ARG_OF_PERICENTER":90.0879,"MEAN_ANOMALY":270.0263,"EPHEMERIS_TYPE":0,"CLASSIFICATION_TYPE":"U","NORAD_CAT_ID":52675,"ELEMENT_SET_NO":999,"REV_AT_EPOCH":18244,"BSTAR":3.4752815e-5,"MEAN_MOTION_DOT":2.65e-6,"MEAN_MOTION_DDOT":0},{"OBJECT_NAME":"STARLINK-4006","OBJECT_ID":"2022-053W","EPOCH":"2025-08-31T09:33:26.269344","MEAN_MOTION":15.08837737,"ECCENTRICITY":0.00010626,"INCLINATION":53.2174,"RA_OF_ASC_NODE":288.3759,"ARG_OF_PERICENTER":75.9509,"MEAN_ANOMALY":284.1601,"EPHEMERIS_TYPE":0,"CLASSIFICATION_TYPE":"U","NORAD_CAT_ID":52676,"ELEMENT_SET_NO":999,"REV_AT_EPOCH":18231,"BSTAR":9.8257864e-5,"MEAN_MOTION_DOT":1.276e-5,"MEAN_MOTION_DDOT":0},{"OBJECT_NAME":"STARLINK-4074","OBJECT_ID":"2022-053Y","EPOCH":"2025-08-31T12:50:51.242784","MEAN_MOTION":15.08838663,"ECCENTRICITY":0.00012023,"INCLINATION":53.2169,"RA_OF_ASC_NODE":277.866,"ARG_OF_PERICENTER":84.8079,"MEAN_ANOMALY":275.305,"EPHEMERIS_TYPE":0,"CLASSIFICATION_TYPE":"U","NORAD_CAT_ID":52678,"ELEMENT_SET_NO":999,"REV_AT_EPOCH":18246,"BSTAR":5.1982061e-5,"MEAN_MOTION_DOT":5.4e-6,"MEAN_MOTION_DDOT":0},{"OBJECT_NAME":"STARLINK-4031","OBJECT_ID":"2022-053Z","EPOCH":"2025-08-31T12:08:26.113920","MEAN_MOTION":15.08841755,"ECCENTRICITY":0.00013702,"INCLINATION":53.216,"RA_OF_ASC_NODE":277.8933,"ARG_OF_PERICENTER":92.1771,"MEAN_ANOMALY":267.9378,"EPHEMERIS_TYPE":0,"CLASSIFICATION_TYPE":"U","NORAD_CAT_ID":52679,"ELEMENT_SET_NO":999,"REV_AT_EPOCH":18242,"BSTAR":5.2397796e-5,"MEAN_MOTION_DOT":5.46e-6,"MEAN_MOTION_DDOT":0},{"OBJECT_NAME":"STARLINK-3774","OBJECT_ID":"2022-053AA","EPOCH":"2025-08-31T08:47:01.824576","MEAN_MOTION":15.0883985,"ECCENTRICITY":0.000135,"INCLINATION":53.2166,"RA_OF_ASC_NODE":278.2903,"ARG_OF_PERICENTER":83.5802,"MEAN_ANOMALY":276.5344,"EPHEMERIS_TYPE":0,"CLASSIFICATION_TYPE":"U","NORAD_CAT_ID":52680,"ELEMENT_SET_NO":999,"REV_AT_EPOCH":18242,"BSTAR":2.3982577e-5,"MEAN_MOTION_DOT":9.4e-7,"MEAN_MOTION_DDOT":0},{"OBJECT_NAME":"STARLINK-4068","OBJECT_ID":"2022-053AB","EPOCH":"2025-08-31T08:52:21.945216","MEAN_MOTION":15.08842576,"ECCENTRICITY":0.00012532,"INCLINATION":53.2167,"RA_OF_ASC_NODE":278.5044,"ARG_OF_PERICENTER":91.9458,"MEAN_ANOMALY":268.1678,"EPHEMERIS_TYPE":0,"CLASSIFICATION_TYPE":"U","NORAD_CAT_ID":52681,"ELEMENT_SET_NO":999,"REV_AT_EPOCH":18240,"BSTAR":6.2807604e-5,"MEAN_MOTION_DOT":7.12e-6,"MEAN_MOTION_DDOT":0},{"OBJECT_NAME":"STARLINK-4017","OBJECT_ID":"2022-053AC","EPOCH":"2025-08-31T09:08:15.474624","MEAN_MOTION":15.08844444,"ECCENTRICITY":0.00012546,"INCLINATION":53.2164,"RA_OF_ASC_NODE":278.4543,"ARG_OF_PERICENTER":89.0685,"MEAN_ANOMALY":271.0451,"EPHEMERIS_TYPE":0,"CLASSIFICATION_TYPE":"U","NORAD_CAT_ID":52682,"ELEMENT_SET_NO":999,"REV_AT_EPOCH":18242,"BSTAR":8.3961185e-5,"MEAN_MOTION_DOT":1.049e-5,"MEAN_MOTION_DDOT":0}]
